NORAD_CAT_ID,OBJECT_NAME,OBJECT_TYPE,EPOCH,MEAN_MOTION,ECCENTRICITY,INCLINATION,RA_OF_ASC_NODE,ARG_OF_PERICENTER,MEAN_ANOMALY,BSTAR,MEAN_MOTION_DOT,MEAN_MOTION_DDOT,TLE_LINE0,TLE_LINE1,TLE_LINE2,SEMIMAJOR_AXIS,PERIOD,APOGEE,PERIGEE,DECAYED
51733.0,STARLINK-3525,PAYLOAD,2022-05-01 22:00:01,15.34229943,0.0001745,53.2175,160.243,42.1796,170.6744,-0.02302,-0.00714602,0.0,0 STARLINK-3525,1 51733U 22016V   22121.91668981 -.00714602  00000-0 -23020-1 0  9996,2 51733  53.2175 160.2430 0001745  42.1796 170.6744 15.34229943  3684,6841.346,93.858,464.405,462.017,0.0
51733.0,STARLINK-3525,PAYLOAD,2022-05-02 14:00:01,15.33210191,0.0001546,53.2173,157.1391,47.6604,248.1015,-0.023776,-0.0071447,0.0,0 STARLINK-3525,1 51733U 22016V   22122.58334491 -.00714470  00000-0 -23776-1 0  9997,2 51733  53.2173 157.1391 0001546  47.6604 248.1015 15.33210191 12181,6844.379,93.921,467.302,465.186,0.0
51733.0,STARLINK-3525,PAYLOAD,2022-05-02 22:00:01,15.32648251,0.0001692,53.2167,155.585,33.8417,302.5785,-0.021587,-0.00642496,0.0,0 STARLINK-3525,1 51733U 22016V   22122.91668981 -.00642496  00000-0 -21587-1 0  9994,2 51733  53.2167 155.5850 0001692  33.8417 302.5785 15.32648251  3637,6846.052,93.955,469.075,466.758,0.0
51733.0,STARLINK-3525,PAYLOAD,2022-05-03 14:00:01,15.31680804,0.0001488,53.2172,152.4895,44.3513,11.2741,-0.024982,-0.00715237,0.0,0 STARLINK-3525,1 51733U 22016V   22123.58334491 -.00715237  00000-0 -24982-1 0  9990,2 51733  53.2172 152.4895 0001488  44.3513  11.2741 15.31680804 12337,6848.934,94.014,471.818,469.78,0.0
51733.0,STARLINK-3525,PAYLOAD,2022-05-03 22:00:00,15.31170163,0.0001626,53.2174,150.9402,39.673,54.6831,-0.025381,-0.00715137,0.0,0 STARLINK-3525,1 51733U 22016V   22123.91667824 -.00715137  00000-0 -25381-1 0  9999,2 51733  53.2174 150.9402 0001626  39.6730  54.6831 15.31170163  3678,6850.456999999999,94.046,473.436,471.208,0.0
51733.0,STARLINK-3525,PAYLOAD,2022-05-04 14:00:01,15.3008764,0.0001709,53.2159,147.849,41.6495,128.3624,-0.023155,-0.00636441,0.0,0 STARLINK-3525,1 51733U 22016V   22124.58334491 -.00636441  00000-0 -23155-1 0  9991,2 51733  53.2159 147.8490 0001709  41.6495 128.3624 15.30087640 12491,6853.688,94.112,476.724,474.381,0.0
51733.0,STARLINK-3525,PAYLOAD,2022-05-04 22:00:01,15.29640667,0.0001663,53.2172,146.3047,47.9008,159.0293,-0.02663,-0.00715368,0.0,0 STARLINK-3525,1 51733U 22016V   22124.91668981 -.00715368  00000-0 -26630-1 0  9999,2 51733  53.2172 146.3047 0001663  47.9008 159.0293 15.29640667  3682,6855.023,94.14,478.028,475.74800000000016,0.0
51733.0,STARLINK-3525,PAYLOAD,2022-05-05 06:00:00,15.291297699999998,0.0001939,53.2174,144.7634,38.2849,204.8589,-0.026992,-0.00713867,0.0,0 STARLINK-3525,1 51733U 22016V   22125.25001157 -.00713867  00000-0 -26992-1 0  9996,2 51733  53.2174 144.7634 0001939  38.2849 204.8589 15.29129770 12594,6856.549,94.171,479.744,477.085,0.0
51733.0,STARLINK-3525,PAYLOAD,2022-05-05 14:00:01,15.28622832,0.0001520999999999,53.2171,143.2223,52.2206,226.5868,-0.027614,-0.0072686999999999,0.0,0 STARLINK-3525,1 51733U 22016V   22125.58334491 -.00726870  00000-0 -27614-1 0  9992,2 51733  53.2171 143.2223 0001521  52.2206 226.5868 15.28622832  3675,6858.065,94.202,480.973,478.887,0.0
51733.0,STARLINK-3525,PAYLOAD,2022-05-05 22:00:00,15.28016893,0.0001619,53.2166,141.679,37.095,276.8129,-0.022499,-0.00583591,0.0,0 STARLINK-3525,1 51733U 22016V   22125.91667824 -.00583591  00000-0 -22499-1 0  9995,2 51733  53.2166 141.6790 0001619  37.0950 276.8129 15.28016893  3633,6859.878000000002,94.24,482.854,480.633,0.0
51733.0,STARLINK-3525,PAYLOAD,2022-05-06 08:00:01,15.27466189,0.0001582,53.217,139.7574,49.8596,36.9585,-0.028064,-0.00705776,0.0,0 STARLINK-3525,1 51733U 22016V   22126.33334491 -.00705776  00000-0 -28064-1 0  9998,2 51733  53.2170 139.7574 0001582  49.8596  36.9585 15.27466189 12763,6861.526999999999,94.274,484.477,482.306,0.0
51733.0,STARLINK-3525,PAYLOAD,2022-05-06 14:00:01,15.27092253,0.0001414,53.2172,138.6051,48.5266,333.5995,-0.028877,-0.0072534999999999,0.0,0 STARLINK-3525,1 51733U 22016V   22126.58334491 -.00725350  00000-0 -28877-1 0  9997,2 51733  53.2172 138.6051 0001414  48.5266 333.5995 15.27092253  3664,6862.647,94.297,485.482,483.542,0.0
51733.0,STARLINK-3525,PAYLOAD,2022-05-07 06:00:02,15.26071702,0.0001976,53.2173,135.5328,32.1718,55.8336,-0.029781,-0.00725259,0.0,0 STARLINK-3525,1 51733U 22016V   22127.25002315 -.00725259  00000-0 -29781-1 0  9992,2 51733  53.2173 135.5328 0001976  32.1718  55.8336 15.26071702 12907,6865.706,94.36,488.92800000000005,486.215,0.0
51733.0,STARLINK-3525,PAYLOAD,2022-05-07 14:00:01,15.25560954,0.0001657,53.2171,133.9986,43.3575,76.5727,-0.030152,-0.00723129,0.0,0 STARLINK-3525,1 51733U 22016V   22127.58334491 -.00723129  00000-0 -30152-1 0  9999,2 51733  53.2171 133.9986 0001657  43.3575  76.5727 15.25560954  3677,6867.239000000001,94.392,490.241,487.966,0.0
51733.0,STARLINK-3525,PAYLOAD,2022-05-07 22:00:00,15.25052202,0.0001813,53.2172,132.4639,39.5424,111.7641,-0.03076,-0.0072626,0.0,0 STARLINK-3525,1 51733U 22016V   22127.91667824 -.00726260  00000-0 -30760-1 0  9999,2 51733  53.2172 132.4639 0001813  39.5424 111.7641 15.25052202  3669,6868.766,94.423,491.876,489.385,0.0
51733.0,STARLINK-3525,PAYLOAD,2022-05-08 14:00:01,15.24032059,0.0001656,53.2172,129.4028,49.9697,162.2487,-0.031674,-0.007253,0.0,0 STARLINK-3525,1 51733U 22016V   22128.58334491 -.00725300  00000-0 -31674-1 0  9993,2 51733  53.2172 129.4028 0001656  49.9697 162.2487 15.24032059 13105,6871.831,94.486,494.833,492.5580000000001,0.0
51733.0,STARLINK-3525,PAYLOAD,2022-05-08 22:00:00,15.2352154,0.0001794,53.2172,127.8716,42.8356,198.9212,-0.0321399999999999,-0.0072486,0.0,0 STARLINK-3525,1 51733U 22016V   22128.91667824 -.00724860  00000-0 -32140-1 0  9998,2 51733  53.2172 127.8716 0001794  42.8356 198.9212 15.23521540  3656,6873.366,94.518,496.464,493.997,0.0
51733.0,STARLINK-3525,PAYLOAD,2022-05-09 14:00:01,15.22503267,0.0001573,53.2172,124.8177,47.8724,251.1823,-0.033257,-0.00727427,0.0,0 STARLINK-3525,1 51733U 22016V   22129.58335648 -.00727427  00000-0 -33257-1 0  9990,2 51733  53.2172 124.8177 0001573  47.8724 251.1823 15.22503267 13255,6876.43,94.581,499.377,497.213,0.0
51733.0,STARLINK-3525,PAYLOAD,2022-05-09 22:00:00,15.21989767,0.00017,53.2174,123.2904,40.6138,286.0785,-0.033471,-0.00721481,0.0,0 STARLINK-3525,1 51733U 22016V   22129.91667824 -.00721481  00000-0 -33471-1 0  9993,2 51733  53.2174 123.2904 0001700  40.6138 286.0785 15.21989767  3659,6877.976,94.613,501.011,498.672,0.0
51733.0,STARLINK-3525,PAYLOAD,2022-05-10 14:00:01,15.20972516,0.0001541,53.2173,120.2436,44.1935,336.0564,-0.034716,-0.00725842,0.0,0 STARLINK-3525,1 51733U 22016V   22130.58334491 -.00725842  00000-0 -34716-1 0  9997,2 51733  53.2173 120.2436 0001541  44.1935 336.0564 15.20972516  3656,6881.043000000002,94.676,503.968,501.848,0.0
51733.0,STARLINK-3525,PAYLOAD,2022-05-10 18:00:00,15.20716309,0.0001827,53.2174,119.4811,38.7126,174.5449,-0.034821,-0.00722822,0.0,0 STARLINK-3525,1 51733U 22016V   22130.75001157 -.00722822  00000-0 -34821-1 0  9998,2 51733  53.2174 119.4811 0001827  38.7126 174.5449 15.20716309 13432,6881.816,94.692,504.93800000000016,502.423,0.0
51733.0,STARLINK-3525,PAYLOAD,2022-05-11 22:00:00,15.18931406,0.0001869,53.2175,114.1601,38.7209,81.295,-0.036707,-0.00723194,0.0,0 STARLINK-3525,1 51733U 22016V   22131.91667824 -.00723194  00000-0 -36707-1 0  9994,2 51733  53.2175 114.1601 0001869  38.7209  81.2950 15.18931406 13615,6887.206,94.803,510.358,507.784,0.0
51733.0,STARLINK-3525,PAYLOAD,2022-05-12 14:00:01,15.179112699999996,0.0001856,53.2173,111.1273,40.884,125.3373,-0.0378,-0.00723021,0.0,0 STARLINK-3525,1 51733U 22016V   22132.58334491 -.00723021  00000-0 -37800-1 0  9993,2 51733  53.2173 111.1273 0001856  40.8840 125.3373 15.17911270  1304,6890.291,94.867,513.435,510.877,0.0
51733.0,STARLINK-3525,PAYLOAD,2022-05-12 22:00:00,15.17401899,0.0001892,53.2174,109.6111,41.4191,146.986,-0.038384,-0.00723441,0.0,0 STARLINK-3525,1 51733U 22016V   22132.91667824 -.00723441  00000-0 -38384-1 0  9993,2 51733  53.2174 109.6111 0001892  41.4191 146.9860 15.17401899  1305,6891.833000000001,94.899,515.002,512.394,0.0
51733.0,STARLINK-3525,PAYLOAD,2022-05-13 06:00:00,15.16890824,0.0002187,53.2173,108.0989,34.3719,175.6038,-0.038887,-0.00722328,0.0,0 STARLINK-3525,1 51733U 22016V   22133.25001157 -.00722328  00000-0 -38887-1 0  9993,2 51733  53.2173 108.0989 0002187  34.3719 175.6038 15.16890824 13819,6893.380999999999,94.931,516.754,513.739,0.0
51733.0,STARLINK-3525,PAYLOAD,2022-05-13 14:00:01,15.16382275,0.0001781999999999,53.2173,106.5852,45.2003,185.7337,-0.039598,-0.00724651,0.0,0 STARLINK-3525,1 51733U 22016V   22133.58334491 -.00724651  00000-0 -39598-1 0  9990,2 51733  53.2173 106.5852 0001782  45.2003 185.7337 15.16382275  1309,6894.922,94.963,518.016,515.559,0.0
51733.0,STARLINK-3525,PAYLOAD,2022-05-13 22:00:00,15.15871205,0.000172,53.2174,105.0726,48.7302,202.5496,-0.040013,-0.00721804,0.0,0 STARLINK-3525,1 51733U 22016V   22133.91667824 -.00721804  00000-0 -40013-1 0  9997,2 51733  53.2174 105.0726 0001720  48.7302 202.5496 15.15871205  1305,6896.472,94.995,519.523,517.151,0.0
51733.0,STARLINK-3525,PAYLOAD,2022-05-14 14:00:01,15.14852902,0.0001706999999999,53.2173,102.0537,44.5977,245.5339,-0.041437,-0.00725805,0.0,0 STARLINK-3525,1 51733U 22016V   22134.58334491 -.00725805  00000-0 -41437-1 0  9998,2 51733  53.2173 102.0537 0001707  44.5977 245.5339 15.14852902 14015,6899.562,95.059,522.605,520.249,0.0
51733.0,STARLINK-3525,PAYLOAD,2022-05-14 22:00:00,15.1434075,0.0001747,53.2176,100.5449,42.5929,266.0466,-0.041732,-0.00720785,0.0,0 STARLINK-3525,1 51733U 22016V   22134.91667824 -.00720785  00000-0 -41732-1 0  9994,2 51733  53.2176 100.5449 0001747  42.5929 266.0466 15.14340750  1302,6901.118,95.091,524.188,521.7769999999998,0.0
